[Satellite]
VERSION=1.1
NAME=COSMOS 1953
NICKNAME=COSMOS 1953
TLE1=1 19210U 88050A   22342.48908454  .00003738  00000+0  23942-3 0  9992
TLE2=2 19210  82.5134 251.3692 0013352 285.0605  74.9145 15.08208962857782
STATUS=0
